{"type":"FeatureCollection","features":[{"type":"Feature","id":648458,"geometry":{"type":"Polygon","coordinates":[[[-111.86369197432647,43.699209883454699],[-111.86464387605334,43.699209580649587],[-111.86461516381266,43.698617515759025],[-111.86370864660194,43.698618169935848],[-111.86370401229659,43.69878259697505],[-111.86369197432647,43.699209883454699]]]},"properties":{"OBJECTID":648458,"PIN":"RP003890010010","COUNTY":"Jefferson","OWNER":null}},{"type":"Feature","id":648459,"geometry":{"type":"Polygon","coordinates":[[[-111.86911330402221,43.698619674591804],[-111.86924226819455,43.698759114194758],[-111.86961094890121,43.69915774540177],[-111.86966580213148,43.699217054503464],[-111.86997162428951,43.699215112191936],[-111.86923320984954,43.698509202563443],[-111.86772905372474,43.696867071896044],[-111.86732180918672,43.696307987292215],[-111.86726937889146,43.695911215044781],[-111.86656103039469,43.695592885734271],[-111.86595833940814,43.695308445455566],[-111.8657425571797,43.695205276950794],[-111.86501359295247,43.694854245858771],[-111.86383597236467,43.694099403588467],[-111.86383224211743,43.694231837695803],[-111.86382613705187,43.694448543444366],[-111.86382611607789,43.694449203923767],[-111.86382378491032,43.694531967362749],[-111.86379373810783,43.695598352880744],[-111.86379361510983,43.695602724577526],[-111.86379361223382,43.695602805557044],[-111.86376855908964,43.696491924041986],[-111.86376854244716,43.696492532380724],[-111.86376852586858,43.696493138919912],[-111.8637685174071,43.696493516916959],[-111.86376851529793,43.69649357630194],[-111.86370864660194,43.698618169935848],[-111.86461516381266,43.698617515759025],[-111.86562007562178,43.698617008845282],[-111.86569765459438,43.698617069703417],[-111.86645607136413,43.698617657094125],[-111.86712134039615,43.698618168098335],[-111.86787750402721,43.698618743599226],[-111.8685118117543,43.698619223346142],[-111.86911330402221,43.698619674591804]]]},"properties":{"OBJECTID":648459,"PIN":"RP003890010030","COUNTY":"Jefferson","OWNER":null}},{"type":"Feature","id":648460,"geometry":{"type":"Polygon","coordinates":[[[-111.86562007562178,43.698617008845282],[-111.86461516381266,43.698617515759025],[-111.86464387605334,43.699209580649587],[-111.86561919980521,43.699211040002687],[-111.86562007562178,43.698617008845282]]]},"properties":{"OBJECTID":648460,"PIN":"RP003890010020","COUNTY":"Jefferson","OWNER":null}},{"type":"Feature","id":648553,"geometry":{"type":"Polygon","coordinates":[[[-111.86383065580235,43.694095996227745],[-111.86383597236467,43.694099403588467],[-111.86501359295247,43.694854245858771],[-111.86545640116621,43.693562449919874],[-111.86538549585481,43.693570888836213],[-111.86531376335927,43.693573893826382],[-111.86524199416155,43.69357142923765],[-111.86517097154808,43.693563522310733],[-111.86510148407324,43.693550261611868],[-111.86503429350843,43.69353179103161],[-111.86429366944347,43.693314406252632],[-111.86426899817641,43.693308821976551],[-111.86424340152632,43.693306234836136],[-111.86421756691144,43.693306715304566],[-111.86419218716897,43.69331025112271],[-111.8641679431949,43.693316746974872],[-111.86414548651997,43.693326025963565],[-111.86412541895814,43.693337843635071],[-111.86410828052588,43.693351878749553],[-111.86404462904422,43.693402892282222],[-111.86399561230672,43.69343839048787],[-111.86394113088279,43.693469410708175],[-111.86388195724797,43.693495515391881],[-111.86381892612901,43.6935163311785],[-111.86375293386438,43.693531566894158],[-111.86368491137755,43.693541005843883],[-111.86370795261749,43.693663627684899],[-111.86371376330605,43.694012795386378],[-111.86383065580235,43.694095996227745]]]},"properties":{"OBJECTID":648553,"PIN":"RP00310001001A","COUNTY":"Jefferson","OWNER":null}},{"type":"Feature","id":648554,"geometry":{"type":"Polygon","coordinates":[[[-111.86353333148702,43.692730924886177],[-111.8636403936072,43.693363936810229],[-111.86369012273798,43.693357229706251],[-111.86373802662712,43.693345453583824],[-111.86378312895137,43.693328845895998],[-111.8638245117502,43.693307747830609],[-111.86386133342627,43.693282586638993],[-111.86392555471369,43.693231951211622],[-111.86396811683147,43.693203497509046],[-111.86401606979726,43.693179990364037],[-111.86406833271406,43.693161956988142],[-111.86412372957609,43.693149807568908],[-111.86418100981126,43.693143815846511],[-111.864238878232,43.693144114271618],[-111.86429603465093,43.6931506965471],[-111.8643511887594,43.693163417906021],[-111.86449875702046,43.692751193740499],[-111.86353333148702,43.692730924886177]]]},"properties":{"OBJECTID":648554,"PIN":"RP003100010050","COUNTY":"Jefferson","OWNER":null}},{"type":"Feature","id":648555,"geometry":{"type":"Polygon","coordinates":[[[-111.86449875702046,43.692751193740499],[-111.8643511887594,43.693163417906021],[-111.86508833559465,43.693383912045],[-111.86514453834934,43.693397934742372],[-111.86520278906377,43.693406489013555],[-111.86526208279219,43.693409430027195],[-111.86532139651374,43.693406702653199],[-111.86537970591938,43.693398357983249],[-111.86526320810086,43.693081208507166],[-111.86512069638452,43.692764246303405],[-111.86449875702046,43.692751193740499]]]},"properties":{"OBJECTID":648555,"PIN":"RP003100010040","COUNTY":"Jefferson","OWNER":null}},{"type":"Feature","id":648556,"geometry":{"type":"Polygon","coordinates":[[[-111.866559528891,43.693756520677084],[-111.86643272018129,43.693724354102052],[-111.86630815466073,43.693687862482378],[-111.86618611221175,43.693647132085758],[-111.86606686521003,43.693602250841423],[-111.86593579080417,43.693549452195676],[-111.86588516440506,43.693531786705528],[-111.8658313587121,43.693520072677906],[-111.86577569111898,43.693514601226092],[-111.86571952934081,43.693515504140031],[-111.86566425154284,43.693522758543708],[-111.86545640116621,43.693562449919874],[-111.86501359295247,43.694854245858771],[-111.8657425571797,43.695205276950794],[-111.86595833940814,43.695308445455566],[-111.866559528891,43.693756520677084]]]},"properties":{"OBJECTID":648556,"PIN":"RP00310001002A","COUNTY":"Jefferson","OWNER":null}},{"type":"Feature","id":648557,"geometry":{"type":"Polygon","coordinates":[[[-111.86915094820195,43.695747284268791],[-111.86907885239654,43.695767971710637],[-111.86850020834937,43.695671877118144],[-111.86819467605238,43.69628383771807],[-111.86852353716517,43.696434927404795],[-111.86906973166738,43.69654766416204],[-111.86923557241366,43.696118574167471],[-111.86915094820195,43.695747284268791]]]},"properties":{"OBJECTID":648557,"PIN":"RP002900030170","COUNTY":"Jefferson","OWNER":null}},{"type":"Feature","id":648558,"geometry":{"type":"Polygon","coordinates":[[[-111.86819467605238,43.69628383771807],[-111.86850020834937,43.695671877118144],[-111.86763607761789,43.695561376106753],[-111.86761614795998,43.695572591913013],[-111.86759416595952,43.695581563505378],[-111.86757060993673,43.695588099927789],[-111.86754598631637,43.69559205756839],[-111.86752082918069,43.695593352756262],[-111.86749568061916,43.695591955992647],[-111.86656103039469,43.695592885734271],[-111.86726937889146,43.695911215044781],[-111.86757574535051,43.696039616015909],[-111.86786400884803,43.696129833996693],[-111.86819467605238,43.69628383771807]]]},"properties":{"OBJECTID":648558,"PIN":"RP002900030180","COUNTY":"Jefferson","OWNER":null}},{"type":"Feature","id":648559,"geometry":{"type":"Polygon","coordinates":[[[-111.87377882724631,43.697584928806165],[-111.87348952041881,43.697743699997872],[-111.87341242766827,43.69778789945844],[-111.87334084460468,43.69783673388168],[-111.87327529527391,43.697889842080059],[-111.87321626754162,43.697946833381067],[-111.87316419318687,43.698007289057017],[-111.87311945788686,43.698070760709776],[-111.87308239084975,43.698136782682603],[-111.87305326246103,43.69820486841455],[-111.87303229153265,43.698274515977332],[-111.87301963035686,43.698345209597626],[-111.8730153717005,43.698416432392243],[-111.87301745988577,43.698442234443782],[-111.87376165688497,43.698433938850577],[-111.87377882724631,43.697584928806165]]]},"properties":{"OBJECTID":648559,"PIN":"RP002900020030","COUNTY":"Jefferson","OWNER":null}},{"type":"Feature","id":648560,"geometry":{"type":"Polygon","coordinates":[[[-111.87376165688497,43.698433938850577],[-111.87301745988577,43.698442234443782],[-111.87301499146122,43.699089613667894],[-111.87301775315471,43.699097986295783],[-111.87302228678288,43.699105943526234],[-111.87302848022667,43.699113286991249],[-111.87303618346149,43.699119837425236],[-111.87304520124344,43.699125430927474],[-111.87305531740358,43.699129933820245],[-111.87306627780377,43.699133233327963],[-111.87307781482194,43.69913524703658],[-111.87308964480823,43.699135924647152],[-111.87374535053806,43.699136118185564],[-111.87376165688497,43.698433938850577]]]},"properties":{"OBJECTID":648560,"PIN":"RP002900020020","COUNTY":"Jefferson","OWNER":null}},{"type":"Feature","id":648561,"geometry":{"type":"Polygon","coordinates":[[[-111.87381749172616,43.69578852257284],[-111.87234061001429,43.696233851629465],[-111.87218149370497,43.696390343956402],[-111.87271653853024,43.696484349425759],[-111.87304186179746,43.696558272371028],[-111.87336970486038,43.696633040819329],[-111.87379858825808,43.696661904230659],[-111.87380395749661,43.696412987033504],[-111.87381749172616,43.69578852257284]]]},"properties":{"OBJECTID":648561,"PIN":"RP002900010100","COUNTY":"Jefferson","OWNER":null}},{"type":"Feature","id":648562,"geometry":{"type":"Polygon","coordinates":[[[-111.87034722065508,43.695578927946904],[-111.87022939574368,43.69558067350583],[-111.86911719764787,43.695581462143757],[-111.86915094820195,43.695747284268791],[-111.86923557241366,43.696118574167471],[-111.87035386910114,43.696108584642708],[-111.87034722065508,43.695578927946904]]]},"properties":{"OBJECTID":648562,"PIN":"RP002900030100","COUNTY":"Jefferson","OWNER":null}},{"type":"Feature","id":648563,"geometry":{"type":"Polygon","coordinates":[[[-111.86931593332197,43.697229364418483],[-111.87035548696707,43.697250721318184],[-111.86965329982567,43.696666092221399],[-111.86906973166738,43.69654766416204],[-111.86852353716517,43.696434927404795],[-111.8688153367889,43.696726981822145],[-111.86931593332197,43.697229364418483]]]},"properties":{"OBJECTID":648563,"PIN":"RP002900030070","COUNTY":"Jefferson","OWNER":null}},{"type":"Feature","id":648564,"geometry":{"type":"Polygon","coordinates":[[[-111.86965329982567,43.696666092221399],[-111.87046869451737,43.696459927927684],[-111.87043112754704,43.696392602161119],[-111.87040070786007,43.696323399975029],[-111.87037760978652,43.696252724388692],[-111.87036196784291,43.696180981279454],[-111.87035386910114,43.696108584642708],[-111.86923557241366,43.696118574167471],[-111.86906973166738,43.69654766416204],[-111.86965329982567,43.696666092221399]]]},"properties":{"OBJECTID":648564,"PIN":"RP002900030090","COUNTY":"Jefferson","OWNER":null}},{"type":"Feature","id":648565,"geometry":{"type":"Polygon","coordinates":[[[-111.87035548696707,43.697250721318184],[-111.87082460221704,43.696753206298503],[-111.8707405360072,43.696703495086908],[-111.87066240241749,43.696648924336913],[-111.87059073423316,43.696589867739767],[-111.87052601863289,43.696526725148026],[-111.87046869451737,43.696459927927684],[-111.86965329982567,43.696666092221399],[-111.87035548696707,43.697250721318184]]]},"properties":{"OBJECTID":648565,"PIN":"RP002900030080","COUNTY":"Jefferson","OWNER":null}},{"type":"Feature","id":648566,"geometry":{"type":"Polygon","coordinates":[[[-111.8771874104458,43.698706372371852],[-111.87615904181686,43.698694453128716],[-111.87614931864948,43.699085407383144],[-111.8761501001952,43.699093989828789],[-111.87615272533701,43.699102376049943],[-111.8761571243022,43.699110363066708],[-111.87616318998555,43.699117750806629],[-111.87617077731366,43.699124360100271],[-111.8761796935778,43.699130025298622],[-111.87618972520926,43.699134609176781],[-111.87620061806379,43.699137998965966],[-111.87621210960248,43.699140108752516],[-111.87622391610903,43.699140890044738],[-111.87717930156283,43.699149241421416],[-111.8771874104458,43.698706372371852]]]},"properties":{"OBJECTID":648566,"PIN":"RP002900010010","COUNTY":"Jefferson","OWNER":null}},{"type":"Feature","id":648567,"geometry":{"type":"Polygon","coordinates":[[[-111.87710544923422,43.698167521455439],[-111.87615401174536,43.698257611874745],[-111.87616247739004,43.698318837719619],[-111.87616551299529,43.698380331778104],[-111.87615904181686,43.698694453128716],[-111.8771874104458,43.698706372371852],[-111.87719722505751,43.698170094605416],[-111.87710544923422,43.698167521455439]]]},"properties":{"OBJECTID":648567,"PIN":"RP002900010020","COUNTY":"Jefferson","OWNER":null}},{"type":"Feature","id":648568,"geometry":{"type":"Polygon","coordinates":[[[-111.87645968058364,43.697434603869972],[-111.87585015089104,43.697754123414434],[-111.87591373039517,43.697818286296396],[-111.87597422923645,43.697884648198908],[-111.87602697130454,43.697954407926957],[-111.8760715987038,43.69802708704421],[-111.87610780123097,43.698102191793311],[-111.87613533634565,43.698179209864968],[-111.87615401174536,43.698257611874745],[-111.87710544923422,43.698167521455439],[-111.87672122890453,43.697802241742266],[-111.87667172887599,43.697740177719268],[-111.87645968058364,43.697434603869972]]]},"properties":{"OBJECTID":648568,"PIN":"RP002900010030","COUNTY":"Jefferson","OWNER":null}},{"type":"Feature","id":648569,"geometry":{"type":"Polygon","coordinates":[[[-111.87459541477061,43.69666123447923],[-111.87459387039706,43.697186958750763],[-111.87469791648302,43.697190055683542],[-111.87480133193019,43.697198919365164],[-111.87490350789223,43.697213502458233],[-111.8750038469046,43.697233716422197],[-111.87510175747806,43.697259444017703],[-111.87519666669007,43.697290534138695],[-111.87562868755772,43.696660635747499],[-111.87459541477061,43.69666123447923]]]},"properties":{"OBJECTID":648569,"PIN":"RP002900010050","COUNTY":"Jefferson","OWNER":null}},{"type":"Feature","id":648570,"geometry":{"type":"Polygon","coordinates":[[[-111.87379858825808,43.696661904230659],[-111.87378328605951,43.697379817502721],[-111.87379479703601,43.697373783148748],[-111.87388363676109,43.697330961697226],[-111.87397682996846,43.697293326281745],[-111.87407380271247,43.697261105710758],[-111.87417395974749,43.697234499586159],[-111.87427668223775,43.697213672858602],[-111.8743813378683,43.697198750613808],[-111.87448728542337,43.697189828962173],[-111.87459387039706,43.697186958750763],[-111.87459541477061,43.69666123447923],[-111.87379858825808,43.696661904230659]]]},"properties":{"OBJECTID":648570,"PIN":"RP002900010060","COUNTY":"Jefferson","OWNER":null}},{"type":"Feature","id":648571,"geometry":{"type":"Polygon","coordinates":[[[-111.87232935539043,43.695571092185084],[-111.87234061001429,43.696233851629465],[-111.87381749172616,43.69578852257284],[-111.87382227346714,43.695563870186731],[-111.87232935539043,43.695571092185084]]]},"properties":{"OBJECTID":648571,"PIN":"RP002900010110","COUNTY":"Jefferson","OWNER":null}},{"type":"Feature","id":648572,"geometry":{"type":"Polygon","coordinates":[[[-111.87140671543806,43.695576358536883],[-111.87141579762466,43.69630610831944],[-111.87181919109176,43.696329089454196],[-111.87218149370497,43.696390343956402],[-111.87234061001429,43.696233851629465],[-111.87232935539043,43.695571092185084],[-111.87140671543806,43.695576358536883]]]},"properties":{"OBJECTID":648572,"PIN":"RP002900010120","COUNTY":"Jefferson","OWNER":null}},{"type":"Feature","id":648573,"geometry":{"type":"Polygon","coordinates":[[[-111.87034722065508,43.695578927946904],[-111.87035386910114,43.696108584642708],[-111.87036196784291,43.696180981279454],[-111.87037760978652,43.696252724388692],[-111.87040070786007,43.696323399975029],[-111.87043112754704,43.696392602161119],[-111.87046869451737,43.696459927927684],[-111.87114723294783,43.696290527049534],[-111.87141579762466,43.69630610831944],[-111.87140671543806,43.695576358536883],[-111.87034722065508,43.695578927946904]]]},"properties":{"OBJECTID":648573,"PIN":"RP002900010140","COUNTY":"Jefferson","OWNER":null}},{"type":"Feature","id":648574,"geometry":{"type":"Polygon","coordinates":[[[-111.87021121160922,43.694509794558364],[-111.86887922212462,43.69460105671245],[-111.8691078526419,43.695581347280651],[-111.86911719764787,43.695581462143757],[-111.87022939574368,43.69558067350583],[-111.87021121160922,43.694509794558364]]]},"properties":{"OBJECTID":648574,"PIN":"RP002900030140","COUNTY":"Jefferson","OWNER":null}},{"type":"Feature","id":648575,"geometry":{"type":"Polygon","coordinates":[[[-111.8686835893082,43.69378660443099],[-111.86887922212462,43.69460105671245],[-111.87021121160922,43.694509794558364],[-111.87020008539017,43.693824153358555],[-111.870171248022,43.693820628376038],[-111.87014350633181,43.693813914891599],[-111.87011752721267,43.693804172998675],[-111.87009393023793,43.693791637540166],[-111.87007328549952,43.693776609064294],[-111.8700647578312,43.693770801169549],[-111.87005509692858,43.693766018378575],[-111.87004453445256,43.693762376655613],[-111.87003332553182,43.693759959989222],[-111.8700217335636,43.693758829112447],[-111.86939514863319,43.69373325368187],[-111.86927775791577,43.693731460704399],[-111.86916048262852,43.693735657220799],[-111.86904390423214,43.693745821662723],[-111.8686835893082,43.69378660443099]]]},"properties":{"OBJECTID":648575,"PIN":"RP002900030150","COUNTY":"Jefferson","OWNER":null}},{"type":"Feature","id":648576,"geometry":{"type":"Polygon","coordinates":[[[-111.87037239014714,43.697809544718879],[-111.87035548696707,43.697250721318184],[-111.86931593332197,43.697229364418483],[-111.86945838301789,43.697773251044993],[-111.86950100928001,43.697904086292453],[-111.87037239014714,43.697809544718879]]]},"properties":{"OBJECTID":648576,"PIN":"RP002900030060","COUNTY":"Jefferson","OWNER":null}},{"type":"Feature","id":648577,"geometry":{"type":"Polygon","coordinates":[[[-111.87082903183253,43.697759999477974],[-111.87147623900732,43.697074669985582],[-111.87082460221704,43.696753206298503],[-111.87035548696707,43.697250721318184],[-111.87037239014714,43.697809544718879],[-111.87082903183253,43.697759999477974]]]},"properties":{"OBJECTID":648577,"PIN":"RP002900030050","COUNTY":"Jefferson","OWNER":null}},{"type":"Feature","id":648578,"geometry":{"type":"Polygon","coordinates":[[[-111.87162929869979,43.697146810193324],[-111.87218149370497,43.696390343956402],[-111.87181919109176,43.696329089454196],[-111.87141579762466,43.69630610831944],[-111.87114723294783,43.696290527049534],[-111.87046869451737,43.696459927927684],[-111.87052601863289,43.696526725148026],[-111.87059073423316,43.696589867739767],[-111.87066240241749,43.696648924336913],[-111.8707405360072,43.696703495086908],[-111.87082460221704,43.696753206298503],[-111.87147623900732,43.697074669985582],[-111.87162929869979,43.697146810193324]]]},"properties":{"OBJECTID":648578,"PIN":"RP002900010130","COUNTY":"Jefferson","OWNER":null}},{"type":"Feature","id":648579,"geometry":{"type":"Polygon","coordinates":[[[-111.87374535053806,43.699136118185564],[-111.87442173040381,43.699139073156367],[-111.87442832468778,43.698437237044573],[-111.87376165688497,43.698433938850577],[-111.87374535053806,43.699136118185564]]]},"properties":{"OBJECTID":648579,"PIN":"RP002900020090","COUNTY":"Jefferson","OWNER":null}},{"type":"Feature","id":648580,"geometry":{"type":"Polygon","coordinates":[[[-111.87376165688497,43.698433938850577],[-111.87442832468778,43.698437237044573],[-111.87441245021446,43.697371323482393],[-111.87432519969023,43.697383092344992],[-111.87423950336321,43.697399831287029],[-111.87415590102462,43.697421435108112],[-111.87407491612363,43.697447769493294],[-111.87399705335112,43.697478669167459],[-111.87392280608131,43.697513938033424],[-111.87377882724631,43.697584928806165],[-111.87376165688497,43.698433938850577]]]},"properties":{"OBJECTID":648580,"PIN":"RP002900020040","COUNTY":"Jefferson","OWNER":null}},{"type":"Feature","id":648581,"geometry":{"type":"Polygon","coordinates":[[[-111.87441245021446,43.697371323482393],[-111.87442832468778,43.698437237044573],[-111.87475896681953,43.698438257475011],[-111.8754676220221,43.69765412708459],[-111.87540104113084,43.697602018116427],[-111.8753285824547,43.697554215220151],[-111.87525076965601,43.697511070263552],[-111.87516817008186,43.69747289270974],[-111.87508138935883,43.697439962122054],[-111.8749910542856,43.697412520643496],[-111.8748978230728,43.697390764183602],[-111.87480237504083,43.697374853031704],[-111.87470540591472,43.697364904566548],[-111.87460762057482,43.697360987719591],[-111.87450973274011,43.697363131972686],[-111.87441245021446,43.697371323482393]]]},"properties":{"OBJECTID":648581,"PIN":"RP002900020050","COUNTY":"Jefferson","OWNER":null}},{"type":"Feature","id":648582,"geometry":{"type":"Polygon","coordinates":[[[-111.8759393072344,43.698443881323129],[-111.87518397998919,43.698439568025243],[-111.87517703595702,43.699141788452451],[-111.87585680573392,43.699145323778581],[-111.87586862702217,43.699144702606475],[-111.87588017028934,43.699142747318788],[-111.87589115093105,43.699139504846038],[-111.87590129553733,43.699135056540825],[-111.87591035702897,43.699129511256558],[-111.8759181096968,43.699123005255046],[-111.87592436421107,43.699115698884057],[-111.87592896768494,43.699107774777687],[-111.87593180418284,43.699099423459877],[-111.87593280426063,43.699090854326329],[-111.8759393072344,43.698443881323129]]]},"properties":{"OBJECTID":648582,"PIN":"RP002900020070","COUNTY":"Jefferson","OWNER":null}},{"type":"Feature","id":648583,"geometry":{"type":"Polygon","coordinates":[[[-111.8754676220221,43.69765412708459],[-111.87475896681953,43.698438257475011],[-111.87518397998919,43.698439568025243],[-111.8759393072344,43.698443881323129],[-111.8759386244548,43.698386682546122],[-111.87593457285092,43.698314748714502],[-111.87592166113073,43.698243365059611],[-111.87589999561119,43.698173106190225],[-111.87586974995705,43.698104537160837],[-111.87583116791428,43.698038206319673],[-111.87578455580442,43.697974646970245],[-111.87573029015529,43.697914372111192],[-111.87550919073313,43.697692238372525],[-111.8754676220221,43.69765412708459]]]},"properties":{"OBJECTID":648583,"PIN":"RP002900020060","COUNTY":"Jefferson","OWNER":null}},{"type":"Feature","id":648584,"geometry":{"type":"Polygon","coordinates":[[[-111.87517703595702,43.699141788452451],[-111.87518397998919,43.698439568025243],[-111.87475896681953,43.698438257475011],[-111.87442832468778,43.698437237044573],[-111.87442173040381,43.699139073156367],[-111.87517703595702,43.699141788452451]]]},"properties":{"OBJECTID":648584,"PIN":"RP002900020080","COUNTY":"Jefferson","OWNER":null}},{"type":"Feature","id":648603,"geometry":{"type":"Polygon","coordinates":[[[-111.87910707345102,43.698262071829937],[-111.87909703764223,43.697373456333494],[-111.87852612166589,43.697162070934517],[-111.87825088397662,43.698195716772055],[-111.8788042903023,43.698237314448072],[-111.87910707345102,43.698262071829937]]]},"properties":{"OBJECTID":648603,"PIN":"RP003200010120","COUNTY":"Jefferson","OWNER":null}},{"type":"Feature","id":648604,"geometry":{"type":"Polygon","coordinates":[[[-111.87878452825966,43.699146884663911],[-111.87934011670649,43.699149732337162],[-111.87936001680593,43.698253324378577],[-111.87910707345102,43.698262071829937],[-111.8788042903023,43.698237314448072],[-111.87878452825966,43.699146884663911]]]},"properties":{"OBJECTID":648604,"PIN":"RP003200010040","COUNTY":"Jefferson","OWNER":null}},{"type":"Feature","id":648605,"geometry":{"type":"Polygon","coordinates":[[[-111.87992209783908,43.698286783437631],[-111.87968122671474,43.698279828626575],[-111.87952212515505,43.698266699956569],[-111.87936001680593,43.698253324378577],[-111.87934011670649,43.699149732337162],[-111.87990755665545,43.69915335545096],[-111.87992209783908,43.698286783437631]]]},"properties":{"OBJECTID":648605,"PIN":"RP003200010050","COUNTY":"Jefferson","OWNER":null}},{"type":"Feature","id":648606,"geometry":{"type":"Polygon","coordinates":[[[-111.88053634360787,43.69915571878574],[-111.88047932953111,43.698538575897665],[-111.8804575045914,43.698301478193521],[-111.87992209783908,43.698286783437631],[-111.87990755665545,43.69915335545096],[-111.88053634360787,43.69915571878574]]]},"properties":{"OBJECTID":648606,"PIN":"RP003200010060","COUNTY":"Jefferson","OWNER":null}},{"type":"Feature","id":648607,"geometry":{"type":"Polygon","coordinates":[[[-111.87710544923422,43.698167521455439],[-111.87719722505751,43.698170094605416],[-111.87771962234859,43.698180494419766],[-111.87825088397662,43.698195716772055],[-111.87852612166589,43.697162070934517],[-111.87840964559065,43.697118107580494],[-111.87829726268515,43.697068857513877],[-111.87818942254498,43.69701452177523],[-111.87808656420447,43.696955319217537],[-111.87798910354454,43.696891491674371],[-111.87789743615367,43.69682329320824],[-111.87667172887599,43.697740177719268],[-111.87672122890453,43.697802241742266],[-111.87710544923422,43.698167521455439]]]},"properties":{"OBJECTID":648607,"PIN":"RP003200010130","COUNTY":"Jefferson","OWNER":null}},{"type":"Feature","id":648609,"geometry":{"type":"Polygon","coordinates":[[[-111.87770101696528,43.699142561257624],[-111.87823252442777,43.699137267048656],[-111.87825088397662,43.698195716772055],[-111.87771962234859,43.698180494419766],[-111.87770101696528,43.699142561257624]]]},"properties":{"OBJECTID":648609,"PIN":"RP003200010020","COUNTY":"Jefferson","OWNER":null}},{"type":"Feature","id":648610,"geometry":{"type":"Polygon","coordinates":[[[-111.87823252442777,43.699137267048656],[-111.87878452825966,43.699146884663911],[-111.8788042903023,43.698237314448072],[-111.87825088397662,43.698195716772055],[-111.87823252442777,43.699137267048656]]]},"properties":{"OBJECTID":648610,"PIN":"RP003200010030","COUNTY":"Jefferson","OWNER":null}},{"type":"Feature","id":648614,"geometry":{"type":"Polygon","coordinates":[[[-111.87982985946761,43.697438779947369],[-111.88088493119857,43.697808871146485],[-111.88121759463235,43.697309619760397],[-111.88051447489561,43.697060299997723],[-111.88024412374573,43.696817077225283],[-111.87982985946761,43.697438779947369]]]},"properties":{"OBJECTID":648614,"PIN":"RP003200020060","COUNTY":"Jefferson","OWNER":null}},{"type":"Feature","id":648615,"geometry":{"type":"Polygon","coordinates":[[[-111.87380395749661,43.696412987033504],[-111.87613187646859,43.695414242634641],[-111.87573122780825,43.695093355673833],[-111.87566676285095,43.695037623479351],[-111.87560852936392,43.694978391225952],[-111.87555688169321,43.694916025659822],[-111.87551214130215,43.694850910922646],[-111.87547458430737,43.694783450120326],[-111.87544443931705,43.694714056278919],[-111.87542189703424,43.694643161526514],[-111.87540709098852,43.694571200528266],[-111.87382753408863,43.695148665169775],[-111.87380395749661,43.696412987033504]]]},"properties":{"OBJECTID":648615,"PIN":"RP003200010160","COUNTY":"Jefferson","OWNER":null}},{"type":"Feature","id":648616,"geometry":{"type":"Polygon","coordinates":[[[-111.87586625418886,43.696838408076573],[-111.87692632240486,43.696048752270464],[-111.87613187646859,43.695414242634641],[-111.87380395749661,43.696412987033504],[-111.87379858825808,43.696661904230659],[-111.87562868755772,43.696660635747499],[-111.87574988517491,43.696721494226239],[-111.87586625418886,43.696838408076573]]]},"properties":{"OBJECTID":648616,"PIN":"RP003200010150","COUNTY":"Jefferson","OWNER":null}},{"type":"Feature","id":648617,"geometry":{"type":"Polygon","coordinates":[[[-111.87667172887599,43.697740177719268],[-111.87789743615367,43.69682329320824],[-111.87692632240486,43.696048752270464],[-111.87586625418886,43.696838408076573],[-111.87645968058364,43.697434603869972],[-111.87667172887599,43.697740177719268]]]},"properties":{"OBJECTID":648617,"PIN":"RP003200010140","COUNTY":"Jefferson","OWNER":null}},{"type":"Feature","id":648618,"geometry":{"type":"Polygon","coordinates":[[[-111.87717930156283,43.699149241421416],[-111.87770101696528,43.699142561257624],[-111.87771962234859,43.698180494419766],[-111.87719722505751,43.698170094605416],[-111.87717930156283,43.699149241421416]]]},"properties":{"OBJECTID":648618,"PIN":"RP003200010010","COUNTY":"Jefferson","OWNER":null}},{"type":"Feature","id":648619,"geometry":{"type":"Polygon","coordinates":[[[-111.87981667205469,43.69649414789945],[-111.87930818880473,43.697256393005532],[-111.87982985946761,43.697438779947369],[-111.88024412374573,43.696817077225283],[-111.88006346372444,43.696653174931541],[-111.87981667205469,43.69649414789945]]]},"properties":{"OBJECTID":648619,"PIN":"RP0033000207A1","COUNTY":"Jefferson","OWNER":null}},{"type":"Feature","id":648620,"geometry":{"type":"Polygon","coordinates":[[[-111.87941550828027,43.696129038134217],[-111.87862546859991,43.697016299895985],[-111.87930818880473,43.697256393005532],[-111.87981667205469,43.69649414789945],[-111.87955485987793,43.696325308450611],[-111.87941550828027,43.696129038134217]]]},"properties":{"OBJECTID":648620,"PIN":"RP0033000207A2","COUNTY":"Jefferson","OWNER":null}},{"type":"Feature","id":648621,"geometry":{"type":"Polygon","coordinates":[[[-111.8789154685673,43.693599201992214],[-111.87764227932418,43.693214146580935],[-111.87734320442087,43.693381971450123],[-111.87762013108389,43.693599922065303],[-111.87785623661877,43.693991645214894],[-111.87887599640123,43.6947510387592],[-111.8789154685673,43.693599201992214]]]},"properties":{"OBJECTID":648621,"PIN":"RP003300030010","COUNTY":"Jefferson","OWNER":null}},{"type":"Feature","id":648622,"geometry":{"type":"Polygon","coordinates":[[[-111.8789408499328,43.692858754668123],[-111.87812477845895,43.692769998573972],[-111.87814102893429,43.692788005252318],[-111.87815319678057,43.692807636009292],[-111.87816098397019,43.692828404513591],[-111.87816419498354,43.692849802927576],[-111.87816275423381,43.692871300430063],[-111.87815669761164,43.69289237187094],[-111.87814617261267,43.692912494172269],[-111.87813143732244,43.69293117512121],[-111.87811285793678,43.692947953324257],[-111.87809088822311,43.692962417634057],[-111.87764227932418,43.693214146580935],[-111.8789154685673,43.693599201992214],[-111.8789408499328,43.692858754668123]]]},"properties":{"OBJECTID":648622,"PIN":"RP003300030020","COUNTY":"Jefferson","OWNER":null}},{"type":"Feature","id":648623,"geometry":{"type":"Polygon","coordinates":[[[-111.87734320442087,43.693381971450123],[-111.87764227932418,43.693214146580935],[-111.87809088822311,43.692962417634057],[-111.87811285793678,43.692947953324257],[-111.87813143732244,43.69293117512121],[-111.87814617261267,43.692912494172269],[-111.87815669761164,43.69289237187094],[-111.87816275423381,43.692871300430063],[-111.87816419498354,43.692849802927576],[-111.87816098397019,43.692828404513591],[-111.87815319678057,43.692807636009292],[-111.87814102893429,43.692788005252318],[-111.87812477845895,43.692769998573972],[-111.87782410097699,43.692487897792105],[-111.87670982542051,43.692883485793921],[-111.87734320442087,43.693381971450123]]]},"properties":{"OBJECTID":648623,"PIN":"RP003300030060","COUNTY":"Jefferson","OWNER":null}},{"type":"Feature","id":648624,"geometry":{"type":"Polygon","coordinates":[[[-111.8789754619678,43.691848594294051],[-111.87782410097699,43.692487897792105],[-111.87812477845895,43.692769998573972],[-111.8789408499328,43.692858754668123],[-111.8789754619678,43.691848594294051]]]},"properties":{"OBJECTID":648624,"PIN":"RP003300030030","COUNTY":"Jefferson","OWNER":null}},{"type":"Feature","id":648625,"geometry":{"type":"Polygon","coordinates":[[[-111.87581889417416,43.691880560555624],[-111.87604354418822,43.692359070153273],[-111.87670982542051,43.692883485793921],[-111.87782410097699,43.692487897792105],[-111.87648511865831,43.691984984203081],[-111.8761969250269,43.691876736818081],[-111.87581889417416,43.691880560555624]]]},"properties":{"OBJECTID":648625,"PIN":"RP003300030050","COUNTY":"Jefferson","OWNER":null}},{"type":"Feature","id":648626,"geometry":{"type":"Polygon","coordinates":[[[-111.87384638075524,43.694232114896877],[-111.87534546019251,43.694162141722337],[-111.87531565129103,43.693964291054087],[-111.87531359257669,43.693956248478045],[-111.8753099097586,43.693948516040145],[-111.8753046836037,43.693941266312507],[-111.87529802998215,43.693934661715588],[-111.87529009509757,43.693928849027195],[-111.87528105809433,43.693923955829632],[-111.87525409074753,43.693909073619814],[-111.87523046379796,43.693891453372231],[-111.87521070202294,43.693871484804518],[-111.87519523900571,43.693849609960417],[-111.87518441999738,43.693826312458668],[-111.87517848233043,43.693802109925365],[-111.87385972097307,43.693655216779248],[-111.87384638075524,43.694232114896877]]]},"properties":{"OBJECTID":648626,"PIN":"RP00330001017B","COUNTY":"Jefferson","OWNER":null}},{"type":"Feature","id":648627,"geometry":{"type":"Polygon","coordinates":[[[-111.87540709098852,43.694571200528266],[-111.87534546019251,43.694162141722337],[-111.87384638075524,43.694232114896877],[-111.87382753408863,43.695148665169775],[-111.87540709098852,43.694571200528266]]]},"properties":{"OBJECTID":648627,"PIN":"RP00330001017A","COUNTY":"Jefferson","OWNER":null}},{"type":"Feature","id":648628,"geometry":{"type":"Polygon","coordinates":[[[-111.8760381185192,43.694114581826142],[-111.87661222692074,43.694573061023085],[-111.87738327474507,43.694064885127389],[-111.87730478854715,43.694010805750004],[-111.87706772520545,43.693537043525765],[-111.8760381185192,43.694114581826142]]]},"properties":{"OBJECTID":648628,"PIN":"RP00330002011B","COUNTY":"Jefferson","OWNER":null}},{"type":"Feature","id":648629,"geometry":{"type":"Polygon","coordinates":[[[-111.87594059788974,43.695015789869323],[-111.87661222692074,43.694573061023085],[-111.8760381185192,43.694114581826142],[-111.87560325465374,43.694358555707225],[-111.87563260028307,43.694553322012091],[-111.8756470358103,43.694620884086603],[-111.87566976375585,43.694687231776072],[-111.87570060180961,43.694751835869738],[-111.87573929802296,43.69481417126287],[-111.87578554244595,43.694873738782107],[-111.87583896490059,43.694930057941576],[-111.87589913230939,43.69498267229563],[-111.87594059788974,43.695015789869323]]]},"properties":{"OBJECTID":648629,"PIN":"RP00330002011A","COUNTY":"Jefferson","OWNER":null}},{"type":"Feature","id":648630,"geometry":{"type":"Polygon","coordinates":[[[-111.87661222692074,43.694573061023085],[-111.87745196889334,43.695243339634281],[-111.87829412570778,43.694688200771886],[-111.87738327474507,43.694064885127389],[-111.87661222692074,43.694573061023085]]]},"properties":{"OBJECTID":648630,"PIN":"RP00330002010B","COUNTY":"Jefferson","OWNER":null}},{"type":"Feature","id":648631,"geometry":{"type":"Polygon","coordinates":[[[-111.87678001734191,43.695686162820053],[-111.87745196889334,43.695243339634281],[-111.87661222692074,43.694573061023085],[-111.87594059788974,43.695015789869323],[-111.87678001734191,43.695686162820053]]]},"properties":{"OBJECTID":648631,"PIN":"RP00330002010A","COUNTY":"Jefferson","OWNER":null}},{"type":"Feature","id":648635,"geometry":{"type":"Polygon","coordinates":[[[-111.87193974178294,43.699149052703497],[-111.87271216716567,43.699135161823769],[-111.87272527425375,43.699134327219866],[-111.87273798249832,43.699131857320381],[-111.87274990699669,43.69912782779307],[-111.87276069101934,43.699122359848893],[-111.87277000365687,43.699115616596671],[-111.87277756697685,43.699107807150085],[-111.87278314941008,43.699099163094843],[-111.8727865803143,43.699089947763618],[-111.87278776040486,43.699080442024098],[-111.87278858284895,43.698601138378308],[-111.87193031849911,43.698565711417835],[-111.87193974178294,43.699149052703497]]]},"properties":{"OBJECTID":648635,"PIN":"RP002900030010","COUNTY":"Jefferson","OWNER":null}},{"type":"Feature","id":648636,"geometry":{"type":"Polygon","coordinates":[[[-111.87213977283585,43.697401555656249],[-111.8722445162314,43.697455104726465],[-111.87276768490956,43.696866662369615],[-111.87304186179746,43.696558272371028],[-111.87271653853024,43.696484349425759],[-111.87218149370497,43.696390343956402],[-111.87162929869979,43.697146810193324],[-111.87180926041039,43.69723661774669],[-111.87213977283585,43.697401555656249]]]},"properties":{"OBJECTID":648636,"PIN":"RP002900010090","COUNTY":"Jefferson","OWNER":null}},{"type":"Feature","id":648666,"geometry":{"type":"Polygon","coordinates":[[[-111.86264491198372,43.691996391365848],[-111.86148647480979,43.691995079294323],[-111.86026937833974,43.691993690551435],[-111.86028684972885,43.693107143519768],[-111.8606275653413,43.693110046563731],[-111.86168053260911,43.692823380165976],[-111.86219895609838,43.692813761334229],[-111.86265921773749,43.69303380259845],[-111.86265607142343,43.692805667382295],[-111.86264491198372,43.691996391365848]]]},"properties":{"OBJECTID":648666,"PIN":"RP007490010010","COUNTY":"Jefferson","OWNER":null}},{"type":"Feature","id":648667,"geometry":{"type":"Polygon","coordinates":[[[-111.86028684972885,43.693107143519768],[-111.86026937833974,43.691993690551435],[-111.85984980684496,43.691993206198852],[-111.85894577046722,43.691992162099041],[-111.85892570051027,43.692889480191404],[-111.85931600757635,43.693098863730739],[-111.86028684972885,43.693107143519768]]]},"properties":{"OBJECTID":648667,"PIN":"RP007490010020","COUNTY":"Jefferson","OWNER":null}},{"type":"Feature","id":648668,"geometry":{"type":"Polygon","coordinates":[[[-111.86160333222234,43.684743316316364],[-111.8616210034231,43.683351885491348],[-111.86163625492418,43.682150898897852],[-111.86080778856143,43.682154640704432],[-111.86077165588779,43.684747073347197],[-111.86160333222234,43.684743316316364]]]},"properties":{"OBJECTID":648668,"PIN":"RP005580010030","COUNTY":"Jefferson","OWNER":null}},{"type":"Feature","id":648669,"geometry":{"type":"Polygon","coordinates":[[[-111.86077165588779,43.684747073347197],[-111.86080778856143,43.682154640704432],[-111.85999652284741,43.682158298899161],[-111.85996035273473,43.684750730517869],[-111.86077165588779,43.684747073347197]]]},"properties":{"OBJECTID":648669,"PIN":"RP005580010020","COUNTY":"Jefferson","OWNER":null}},{"type":"Feature","id":648670,"geometry":{"type":"Polygon","coordinates":[[[-111.85996035273473,43.684750730517869],[-111.85999652284741,43.682158298899161],[-111.85914333420489,43.682162141815482],[-111.85910712732635,43.684754572405488],[-111.85996035273473,43.684750730517869]]]},"properties":{"OBJECTID":648670,"PIN":"RP005580010010","COUNTY":"Jefferson","OWNER":null}},{"type":"Feature","id":648692,"geometry":{"type":"Polygon","coordinates":[[[-111.85507243219747,43.69933628528883],[-111.85382459175545,43.699336292416191],[-111.85383186484631,43.699809702588915],[-111.85383913459886,43.700282927188837],[-111.85384640425582,43.700756153553613],[-111.85385367157782,43.701229235781426],[-111.85510155185702,43.70122914452115],[-111.8550942702693,43.700755838795551],[-111.85508699072301,43.700282614107373],[-111.8550797086652,43.699809389337936],[-111.85507243219747,43.69933628528883]]]},"properties":{"OBJECTID":648692,"PIN":"RPI02260160620","COUNTY":"Jefferson","OWNER":null}},{"type":"Feature","id":648702,"geometry":{"type":"Polygon","coordinates":[[[-111.86088851728395,43.701309568015667],[-111.86361111693024,43.701308585255724],[-111.86360983870011,43.701226280231488],[-111.86360248932937,43.700753065496606],[-111.8635951448899,43.700279850819804],[-111.86358779794051,43.699806636061908],[-111.86358045089766,43.69933342306885],[-111.86227588737546,43.699333902508315],[-111.86097132434995,43.699334368847239],[-111.86085794320248,43.699334406982047],[-111.86088851728395,43.701309568015667]]]},"properties":{"OBJECTID":648702,"PIN":"RPI0226013000A","COUNTY":"Jefferson","OWNER":null}},{"type":"Feature","id":648703,"geometry":{"type":"Polygon","coordinates":[[[-111.86074444287503,43.699334446374216],[-111.85943988050896,43.699334895221732],[-111.85813531876975,43.699335327369653],[-111.85814262287816,43.699808541630809],[-111.85814992689187,43.700281757656803],[-111.85815723093914,43.700754971848568],[-111.85816453495583,43.701228186005665],[-111.85816580592123,43.70131048553889],[-111.86088851728395,43.701309568015667],[-111.86085794320248,43.699334406982047],[-111.86074444287503,43.699334446374216]]]},"properties":{"OBJECTID":648703,"PIN":"RPI0226014000A","COUNTY":"Jefferson","OWNER":null}},{"type":"Feature","id":648709,"geometry":{"type":"Polygon","coordinates":[[[-111.85443055241798,43.689670089444441],[-111.85441375583217,43.690636269295723],[-111.8544498763555,43.690638624085601],[-111.85448501751894,43.690645129187395],[-111.85451827705114,43.690655616396924],[-111.85454880828809,43.690669819514355],[-111.85457582767667,43.690687372684387],[-111.85459864395635,43.690707827150185],[-111.85461667271795,43.690730660530434],[-111.85462945337872,43.690755287942039],[-111.85463665598091,43.690781080134919],[-111.85463810064741,43.690807374661567],[-111.85463374682831,43.690833499084633],[-111.85462370760425,43.690858787452093],[-111.85553898440784,43.690155338915858],[-111.85512242224618,43.689877307722412],[-111.85443055241798,43.689670089444441]]]},"properties":{"OBJECTID":648709,"PIN":"RP003700030130","COUNTY":"Jefferson","OWNER":null}},{"type":"Feature","id":648710,"geometry":{"type":"Polygon","coordinates":[[[-111.85452130150973,43.691083440865341],[-111.85680817598472,43.691110671130524],[-111.85655918444354,43.690836251154764],[-111.85553898440784,43.690155338915858],[-111.85462370760425,43.690858787452093],[-111.85461087009243,43.690879245910189],[-111.85459430027343,43.69089824051084],[-111.85457430870638,43.690915413334288],[-111.85455126914789,43.690930443662431],[-111.85454295345127,43.690935932832836],[-111.85453585376008,43.690942256970594],[-111.85453013131915,43.690949278646023],[-111.85452591094393,43.690956838136429],[-111.85452328788281,43.690964769761784],[-111.85452231802553,43.690972898099076],[-111.85452130150973,43.691083440865341]]]},"properties":{"OBJECTID":648710,"PIN":"RP003700030140","COUNTY":"Jefferson","OWNER":null}},{"type":"Feature","id":648711,"geometry":{"type":"Polygon","coordinates":[[[-111.85680817598472,43.691110671130524],[-111.85452130150973,43.691083440865341],[-111.85451481977051,43.691522366634644],[-111.85720241743664,43.691545167040161],[-111.85680817598472,43.691110671130524]]]},"properties":{"OBJECTID":648711,"PIN":"RP003700030150","COUNTY":"Jefferson","OWNER":null}},{"type":"Feature","id":648712,"geometry":{"type":"Polygon","coordinates":[[[-111.85720241743664,43.691545167040161],[-111.85451481977051,43.691522366634644],[-111.8545079508463,43.691987520085661],[-111.85752645132611,43.691989732958966],[-111.8575249923571,43.691900673401818],[-111.85720241743664,43.691545167040161]]]},"properties":{"OBJECTID":648712,"PIN":"RP003700030160","COUNTY":"Jefferson","OWNER":null}},{"type":"Feature","id":648880,"geometry":{"type":"Polygon","coordinates":[[[-111.87407467274157,43.684676300192258],[-111.87406015463655,43.685287940553785],[-111.87471275476877,43.685290499677343],[-111.87471727015908,43.684669264278412],[-111.87407467274157,43.684676300192258]]]},"properties":{"OBJECTID":648880,"PIN":"RP04N39E097066","COUNTY":"Jefferson","OWNER":null}},{"type":"Feature","id":648881,"geometry":{"type":"Polygon","coordinates":[[[-111.87640803594978,43.685931626533183],[-111.87719853175666,43.685920189099157],[-111.87717297301405,43.684642339083922],[-111.87641385676351,43.684650668077303],[-111.87640803594978,43.685931626533183]]]},"properties":{"OBJECTID":648881,"PIN":"RP04N39E097090","COUNTY":"Jefferson","OWNER":null}},{"type":"Feature","id":648897,"geometry":{"type":"Polygon","coordinates":[[[-111.86405046118259,43.686500047422577],[-111.86307402914809,43.686484668789241],[-111.8630619759176,43.686485179860682],[-111.86305018612192,43.686487077027074],[-111.86303896421478,43.686490311960497],[-111.86302859354615,43.686494801724358],[-111.86301934119402,43.686500432465238],[-111.86301144302182,43.686507060933991],[-111.86300509859079,43.686514517992208],[-111.86300047351213,43.686522612257527],[-111.86299768183251,43.686531136977173],[-111.86299679569755,43.686539877411604],[-111.86300108361316,43.687014550354846],[-111.86403546884844,43.687030850985394],[-111.86405046118259,43.686500047422577]]]},"properties":{"OBJECTID":648897,"PIN":"RP003720030010","COUNTY":"Jefferson","OWNER":null}},{"type":"Feature","id":648898,"geometry":{"type":"Polygon","coordinates":[[[-111.86083162426183,43.687822754141926],[-111.86087179515772,43.687770054829691],[-111.86081797458323,43.686747751115284],[-111.86069817009853,43.686769989067109],[-111.8605766974995,43.68678679703379],[-111.86045402323218,43.686798108113585],[-111.86031099795828,43.686808034932632],[-111.86037571488221,43.687576308819288],[-111.86062282509452,43.687721480378578],[-111.86083162426183,43.687822754141926]]]},"properties":{"OBJECTID":648898,"PIN":"RP003720020140","COUNTY":"Jefferson","OWNER":null}},{"type":"Feature","id":648899,"geometry":{"type":"Polygon","coordinates":[[[-111.86037571488221,43.687576308819288],[-111.86031099795828,43.686808034932632],[-111.85979552946375,43.686843811400301],[-111.85972036757522,43.686849685663852],[-111.85981655515155,43.687704734655824],[-111.86011931321646,43.687571082010528],[-111.86025265753375,43.687550967413245],[-111.86037571488221,43.687576308819288]]]},"properties":{"OBJECTID":648899,"PIN":"RP003720020130","COUNTY":"Jefferson","OWNER":null}}],"exceededTransferLimit":true,"properties":{"exceededTransferLimit":true}}